OBJECT_NAME,OBJECT_ID,EPOCH,MEAN_MOTION,ECCENTRICITY,INCLINATION,RA_OF_ASC_NODE,ARG_OF_PERICENTER,MEAN_ANOMALY,EPHEMERIS_TYPE,CLASSIFICATION_TYPE,NORAD_CAT_ID,ELEMENT_SET_NO,REV_AT_EPOCH,BSTAR,MEAN_MOTION_DOT,MEAN_MOTION_DDOT
SATELIOT_1,2024-149CL,2026-07-15T17:55:44.052960,14.98164284,.0005583,97.6733,272.1698,350.9800,9.1321,0,U,60550,999,10434,.10279E-3,.1161E-4,0
BRO-14,2024-149CM,2026-07-15T03:35:56.497344,14.96235870,.00067346,97.6864,271.4249,18.0591,342.0868,0,U,60551,999,10417,.86103082E-4,.914E-5,0
SATELIOT_3,2024-149CN,2026-07-15T18:57:13.703616,14.98164504,.0004992,97.6817,273.0309,2.3270,357.7975,0,U,60552,999,10436,.36954E-4,.38E-5,0
BRO-15,2024-149CP,2026-07-15T17:37:43.627008,14.96221930,.0007723,97.6791,271.5741,2.7263,357.3999,0,U,60553,999,10427,.29472E-4,.275E-5,0
UM5-RIBAT,2024-149CQ,2026-07-15T19:13:59.340864,15.01219579,.000065,97.6606,274.2136,346.3621,13.7585,0,U,60554,999,10448,.94537E-4,.1154E-4,0
UM5-EOSAT,2024-149CR,2026-07-15T03:48:42.267456,15.01728593,.00091169,97.6776,274.5816,35.6763,324.5069,0,U,60555,999,10441,.15172289E-3,.1915E-4,0
LASARSAT,2024-247Q,2026-07-15T18:30:32.970816,15.48070783,.0007484,44.9738,101.3784,169.7911,190.3132,0,U,62391,999,8774,.44538E-3,.23596E-3,0
CROCUBE,2024-247T,2026-07-15T02:05:50.091648,15.50189566,.0007544,44.9722,102.0802,171.5148,188.5872,0,U,62394,999,8767,.45369582E-3,.25934E-3,0
TEVEL2-4,2025-052D,2026-07-15T03:30:38.474496,15.35565165,.00035404,97.3870,92.5984,51.9364,308.2199,0,U,63213,999,7440,.31214817E-3,.10715E-3,0
TEVEL2-5,2025-052E,2026-07-15T04:04:51.940704,15.35379345,.00035943,97.3866,92.5619,53.2255,306.9318,0,U,63214,999,7440,.30277793E-3,.10329E-3,0
TEVEL2-6,2025-052F,2026-07-15T12:12:47.954304,15.35351129,.00036215,97.3871,92.8865,54.7007,305.4575,0,U,63215,999,7445,.343915E-3,.11734E-3,0
TEVEL2-1,2025-052H,2026-07-14T15:14:51.352512,15.34761887,.0004319,97.3847,91.6018,61.6960,298.4718,0,U,63217,999,7430,.2955724E-3,.9885E-4,0
TEVEL2-3,2025-052J,2026-07-15T05:10:33.241728,15.34836829,.00039996,97.3848,92.2082,62.2511,297.9137,0,U,63218,999,7439,.30743443E-3,.10309E-3,0
TEVEL2-2,2025-052K,2026-07-15T03:46:07.684032,15.34784029,.00043245,97.3840,92.1268,60.5637,299.6037,0,U,63219,999,7438,.30238262E-3,.10122E-3,0
TEVEL2-9,2025-052AD,2026-07-15T05:40:36.862464,15.32733619,.00076701,97.3907,91.5192,57.1732,303.0248,0,U,63237,999,7432,.29626782E-3,.9297E-4,0
TEVEL2-7,2025-052AE,2026-07-15T03:39:30.098880,15.32415280,.0007756,97.3906,91.3390,56.8395,303.3590,0,U,63238,999,7430,.29112625E-3,.9043E-4,0
TEVEL2-8,2025-052AF,2026-07-15T03:51:46.384992,15.32400496,.00077974,97.3906,91.3237,57.8563,302.3435,0,U,63239,999,7430,.28216258E-3,.8758E-4,0
FORESAIL-1 PRIME,2025-276DS,2026-07-15T18:53:27.702816,15.18941111,.0002852,97.4192,269.5370,43.1947,316.9511,0,U,66778,999,3474,.11377E-3,.2309E-4,0
